[{"OBJECT_NAME":"STARLINK-30983","OBJECT_ID":"2023-191G","EPOCH":"2026-03-09T12:03:45.783936","MEAN_MOTION":15.26724672,"ECCENTRICITY":7.758e-5,"INCLINATION":42.9994,"RA_OF_ASC_NODE":104.4084,"ARG_OF_PERICENTER":285.9058,"MEAN_ANOMALY":74.1707,"EPHEMERIS_TYPE":0,"CLASSIFICATION_TYPE":"U","NORAD_CAT_ID":58514,"ELEMENT_SET_NO":999,"REV_AT_EPOCH":12509,"BSTAR":0.00033680034,"MEAN_MOTION_DOT":8.781e-5,"MEAN_MOTION_DDOT":0},{"OBJECT_NAME":"TIANMU-1 15","OBJECT_ID":"2024-004A","EPOCH":"2026-03-09T23:35:22.816608","MEAN_MOTION":15.25840188,"ECCENTRICITY":0.00066612,"INCLINATION":97.4675,"RA_OF_ASC_NODE":255.2203,"ARG_OF_PERICENTER":349.0037,"MEAN_ANOMALY":11.1054,"EPHEMERIS_TYPE":0,"CLASSIFICATION_TYPE":"U","NORAD_CAT_ID":58700,"ELEMENT_SET_NO":999,"REV_AT_EPOCH":12064,"BSTAR":0.0003159702,"MEAN_MOTION_DOT":8.018e-5,"MEAN_MOTION_DDOT":0}]
